{
  "links" : {
    "next" : "https://api.nasa.gov/neo/rest/v1/feed?start_date=2002-11-23&end_date=2002-11-23&detailed=true&api_key=t0TVs3DtDT2H8Oy2Zy8m2eVrNsAVKAexjcZXUckd",
    "prev" : "https://api.nasa.gov/neo/rest/v1/feed?start_date=2002-11-21&end_date=2002-11-21&detailed=true&api_key=t0TVs3DtDT2H8Oy2Zy8m2eVrNsAVKAexjcZXUckd",
    "self" : "https://api.nasa.gov/neo/rest/v1/feed?start_date=2002-11-22&end_date=2002-11-22&detailed=true&api_key=t0TVs3DtDT2H8Oy2Zy8m2eVrNsAVKAexjcZXUckd"
  },
  "element_count" : 5,
  "near_earth_objects" : {
    "2002-11-22" : [ {
      "links" : {
        "self" : "https://api.nasa.gov/neo/rest/v1/neo/2470975?api_key=t0TVs3DtDT2H8Oy2Zy8m2eVrNsAVKAexjcZXUckd"
      },
      "neo_reference_id" : "2470975",
      "name" : "470975 (2009 SC15)",
      "nasa_jpl_url" : "http://ssd.jpl.nasa.gov/sbdb.cgi?sstr=2470975",
      "absolute_magnitude_h" : 21.4,
      "estimated_diameter" : {
        "kilometers" : {
          "estimated_diameter_min" : 0.1394938229,
          "estimated_diameter_max" : 0.3119176705
        },
        "meters" : {
          "estimated_diameter_min" : 139.4938229344,
          "estimated_diameter_max" : 311.9176705226
        },
        "miles" : {
          "estimated_diameter_min" : 0.0866774163,
          "estimated_diameter_max" : 0.1938165949
        },
        "feet" : {
          "estimated_diameter_min" : 457.6569140361,
          "estimated_diameter_max" : 1023.3519701574
        }
      },
      "is_potentially_hazardous_asteroid" : false,
      "close_approach_data" : [ {
        "close_approach_date" : "2002-11-22",
        "epoch_date_close_approach" : 1037952000000,
        "relative_velocity" : {
          "kilometers_per_second" : "4.3642759666",
          "kilometers_per_hour" : "15711.3934797969",
          "miles_per_hour" : "9762.4489097105"
        },
        "miss_distance" : {
          "astronomical" : "0.3038740685",
          "lunar" : "118.2070159912",
          "kilometers" : "45458916",
          "miles" : "28246860"
        },
        "orbiting_body" : "Earth"
      } ],
      "orbital_data" : {
        "orbit_id" : "60",
        "orbit_determination_date" : "2017-04-06 09:19:13",
        "orbit_uncertainty" : "0",
        "minimum_orbit_intersection" : ".0572285",
        "jupiter_tisserand_invariant" : "5.075",
        "epoch_osculation" : "2458000.5",
        "eccentricity" : ".1792993241853784",
        "semi_major_axis" : "1.265638922824781",
        "inclination" : "6.844233517448826",
        "ascending_node_longitude" : "178.6551393964238",
        "orbital_period" : "520.0716263365472",
        "perihelion_distance" : "1.038710719299587",
        "perihelion_argument" : "333.8414236060457",
        "aphelion_distance" : "1.492567126349974",
        "perihelion_time" : "2457908.481203123846",
        "mean_anomaly" : "63.6965471636376",
        "mean_motion" : ".6922123449338839",
        "equinox" : "J2000"
      }
    }, {
      "links" : {
        "self" : "https://api.nasa.gov/neo/rest/v1/neo/3764727?api_key=t0TVs3DtDT2H8Oy2Zy8m2eVrNsAVKAexjcZXUckd"
      },
      "neo_reference_id" : "3764727",
      "name" : "(2016 WF7)",
      "nasa_jpl_url" : "http://ssd.jpl.nasa.gov/sbdb.cgi?sstr=3764727",
      "absolute_magnitude_h" : 28.8,
      "estimated_diameter" : {
        "kilometers" : {
          "estimated_diameter_min" : 0.0046190746,
          "estimated_diameter_max" : 0.0103285648
        },
        "meters" : {
          "estimated_diameter_min" : 4.6190746028,
          "estimated_diameter_max" : 10.328564805
        },
        "miles" : {
          "estimated_diameter_min" : 0.002870159,
          "estimated_diameter_max" : 0.0064178706
        },
        "feet" : {
          "estimated_diameter_min" : 15.1544447199,
          "estimated_diameter_max" : 33.886368555
        }
      },
      "is_potentially_hazardous_asteroid" : false,
      "close_approach_data" : [ {
        "close_approach_date" : "2002-11-22",
        "epoch_date_close_approach" : 1037952000000,
        "relative_velocity" : {
          "kilometers_per_second" : "10.5317025815",
          "kilometers_per_hour" : "37914.129293369",
          "miles_per_hour" : "23558.3655045381"
        },
        "miss_distance" : {
          "astronomical" : "0.1274921088",
          "lunar" : "49.5944328308",
          "kilometers" : "19072550",
          "miles" : "11851133"
        },
        "orbiting_body" : "Earth"
      } ],
      "orbital_data" : {
        "orbit_id" : "6",
        "orbit_determination_date" : "2017-04-06 08:21:58",
        "orbit_uncertainty" : "7",
        "minimum_orbit_intersection" : ".0033147",
        "jupiter_tisserand_invariant" : "6.754",
        "epoch_osculation" : "2458000.5",
        "eccentricity" : ".2379077525515878",
        "semi_major_axis" : ".8732832979942745",
        "inclination" : ".6467351461787517",
        "ascending_node_longitude" : "76.2381764637944",
        "orbital_period" : "298.0788472742083",
        "perihelion_distance" : ".6655224312276181",
        "perihelion_argument" : "208.6318518983579",
        "aphelion_distance" : "1.081044164760931",
        "perihelion_time" : "2457918.713005080428",
        "mean_anomaly" : "98.7769458996879",
        "mean_motion" : "1.207734139111285",
        "equinox" : "J2000"
      }
    } ]
  }
}